RISAT-2BR2              
1 46905U 20081A   26068.52426450  .00004901  00000+0  37609-3 0  9996
2 46905  36.8980  95.9121 0010905  52.9142 307.2595 15.01602463292489
STARLINK-5572           
1 55378U 23013AZ  26067.70295535 -.00001211  00000+0 -74621-4 0  9994
2 55378  43.0037 318.4570 0001297 264.7105  95.3589 15.02524140171416
